SYRACUSE 3A             
1 28885U 05041B   26043.55436678  .00000136  00000+0  00000+0 0  9998
2 28885   4.3248  77.4038 0003587 255.1010  55.8830  1.00275389 74498
INMARSAT 4-F2           
1 28899U 05044A   26043.53078965 -.00000254  00000+0  00000+0 0  9997
2 28899   4.9301  43.8004 0002273 303.9867 129.3581  1.00271101 74276
METEOSAT-9 (MSG-2)      
1 28912U 05049B   26043.16780751  .00000130  00000+0  00000+0 0  9992
2 28912   9.0599  55.3877 0001022 237.9969 314.9346  1.00268752  5748
EUTELSAT 174A           
1 28924U 05052A   26043.35947481  .00000014  00000+0  00000+0 0  9996
2 28924   3.9010  78.0974 0006092 247.8743 119.8304  1.00270042 51083
ECHOSTAR 10             
1 28935U 06003A   26043.49072709 -.00000048  00000+0  00000+0 0  9990
2 28935   0.0615 281.1350 0001720  20.4808 267.3715  1.00272093 73211
SPAINSAT                
1 28945U 06007A   26042.69007949 -.00000209  00000+0  00000+0 0  9999
2 28945   0.2374  90.2030 0004052 234.0671  35.6776  1.00270753 72967
JCSAT-5A                
1 29045U 06010A   26043.60183593 -.00000321  00000+0  00000+0 0  9992
2 29045   0.7851  85.9636 0002118 316.9374  88.4411  1.00270894 72528
ASTRA 1KR               
1 29055U 06012A   26043.54890675  .00000126  00000+0  00000+0 0  9996
2 29055   0.1508  80.7260 0004146 211.5218  66.9469  1.00268286 44444
GALAXY 16 (G-16)        
1 29236U 06023A   26043.54644715 -.00000119  00000+0  00000+0 0  9994
2 29236   0.0255 151.8545 0002716 185.2926 263.1335  1.00271347 71729
EUTELSAT 33F            
1 29270U 06032A   26043.55168010  .00000162  00000+0  00000+0 0  9999
2 29270   1.3388  83.7534 0003445 246.4560  44.0503  1.00273493 46058
JCSAT-3A                
1 29272U 06033A   26043.57048685 -.00000337  00000+0  00000+0 0  9994
2 29272   0.0010 177.4933 0001868 161.8281 136.6542  1.00272025 46498
SYRACUSE 3B             
1 29273U 06033B   26043.33189230  .00000027  00000+0  00000+0 0  9996
2 29273   2.5776  81.6803 0003926 245.7848 297.7222  1.00272758 71423
KOREASAT 5 (MUGUNGWHA 5)
1 29349U 06034A   26043.56754017 -.00000351  00000+0  00000+0 0  9998
2 29349   1.4611  84.6835 0002326 280.4021  94.8685  1.00269709 40071
DIRECTV 9S              
1 29494U 06043A   26043.53283766 -.00000107  00000+0  00000+0 0  9993
2 29494   2.0981  82.4844 0003102 256.4860 254.2045  1.00272173 50131
OPTUS D1                
1 29495U 06043B   26043.58916745 -.00000178  00000+0  00000+0 0  9997
2 29495   2.7129  81.2486 0003687 250.7542 174.6946  1.00272547 70877
BADR-4                  
1 29526U 06051A   26043.26507197  .00000152  00000+0  00000+0 0  9994
2 29526   1.6816  82.5602 0007798 251.1643 290.2697  1.00276029 50012
WILDBLUE-1              
1 29643U 06054A   26043.52316662 -.00000043  00000+0  00000+0 0  9991
2 29643   2.4804  82.1214 0001525 263.1039 234.4677  1.00272438 52545
SKYNET 5A               
1 30794U 07007B   26043.02614073 -.00000265  00000+0  00000+0 0  9997
2 30794   4.9824  75.2755 0003960 258.0588 273.3074  1.00269520 69441
ANIK F3                 
1 31102U 07009A   26043.52160661  .00000006  00000+0  00000+0 0  9999
2 31102   0.8744  85.5370 0002602 244.8034 241.2727  1.00271953 45311
ASTRA 1L                
1 31306U 07016A   26043.39810598 -.00000189  00000+0  00000+0 0  9992
2 31306   0.9982  82.6045 0003000 274.6854 266.3401  1.00079064 43733
GALAXY 17 (G-17)        
1 31307U 07016B   26043.52012786 -.00000200  00000+0  00000+0 0  9995
2 31307   2.6550  81.5229 0003905 227.4314 295.8420  1.00271364 68559
ZHONGXING-6B            
1 31800U 07031A   26043.57066019 -.00000248  00000+0  00000+0 0  9995
2 31800   2.1172  80.8178 0010336 236.3695 159.6962  0.99062447 68166
DIRECTV 10              
1 31862U 07032A   26043.58378334 -.00000143  00000+0  00000+0 0  9995
2 31862   0.0807 109.3845 0006137 260.8651 170.1906  0.98339780 44348
INTELSAT 11 (IS-11)     
1 32253U 07044B   26043.39351262 -.00000214  00000+0  00000+0 0  9992
2 32253   3.2393  80.2331 0006156 195.9925 322.4947  0.99051815 67217
WGS F1 (USA 195)        
1 32258U 07046A   26043.39283359 -.00000260  00000+0  00000+0 0  9991
2 32258   0.0869  86.7808 0000160 308.4256 206.1164  1.00271127 51082
SKYNET 5B               
1 32294U 07056B   26043.33613899  .00000145  00000+0  00000+0 0  9993
2 32294   4.9339  75.0094 0004089 253.0065 320.4416  1.00274615 66948
ASTRA 4A                
1 32299U 07057A   26043.33215230  .00000040  00000+0  00000+0 0  9990
2 32299   0.0548 280.3738 0002263  45.6389 300.7195  1.00272566 50394
HORIZONS-2              
1 32388U 07063B   26043.53053332 -.00000247  00000+0  00000+0 0  9991
2 32388   2.2798  82.2298 0003224 238.9358 298.5836  1.00270891 66566
THURAYA-3               
1 32404U 08001A   26043.49335312 -.00000295  00000+0  00000+0 0  9992
2 32404   5.7772  35.5615 0002241 288.9568  94.1147  1.00273551 66241
THOR 5                  
1 32487U 08006A   26043.33102564 -.00000002  00000+0  00000+0 0  9998
2 32487   0.0421 257.3943 0002428  79.0665 284.3052  1.00272221 66064
AMC-14                  
1 32708U 08011A   26043.55254677  .00000115  00000+0  00000+0 0  9991
2 32708  23.8567  22.0203 0046321 352.9858   3.4967  1.00313656 66914
DIRECTV 11              
1 32729U 08013A   26043.54644748 -.00000118  00000+0  00000+0 0  9991
2 32729   0.0075 288.0648 0000233 102.0898 209.9467  1.00272233 44341
ICO G1                  
1 32763U 08016A   26043.52671997 -.00000165  00000+0  00000+0 0  9998
2 32763   5.5087  36.4373 0002879 269.3148 293.5692  1.00273107 65292
VINASAT-1               
1 32767U 08018A   26043.60183593 -.00000320  00000+0  00000+0 0  9996
2 32767   0.0662 275.9641 0001915  92.5473 122.7145  1.00276360 65346
STAR ONE C2             
1 32768U 08018B   26043.53226667 -.00000270  00000+0  00000+0 0  9993
2 32768   0.9206  83.6973 0002686 260.7366 284.7425  1.00271001 65402
AMOS-3                  
1 32794U 08022A   26043.38447529 -.00000028  00000+0  00000+0 0  9993
2 32794   0.1314  90.2723 0002155 176.0991  10.3213  1.00272939 81085
GALAXY 18 (G-18)        
1 32951U 08024A   26043.52082660  .00000033  00000+0  00000+0 0  9992
2 32951   0.0129 100.8862 0002894 229.6949 236.4587  1.00272483 44609
ZHONGXING-9             
1 33051U 08028A   26043.56346682 -.00000241  00000+0  00000+0 0  9991
2 33051   0.4494  87.5101 0009349 226.7142 123.5824  1.00269374 64788
SKYNET 5C               
1 33055U 08030A   26043.39897265 -.00000134  00000+0  00000+0 0  9998
2 33055   3.4686  78.5511 0004592 261.4597 288.2492  1.00272324 64709
TURKSAT 3A              
1 33056U 08030B   26043.55350010  .00000154  00000+0  00000+0 0  9990
2 33056   0.0237  81.5083 0003749 267.1988  35.0968  1.00271785 51109
INTELSAT 25 (IS-25)     
1 33153U 08034A   26043.39628597 -.00000217  00000+0  00000+0 0  9993
2 33153   2.3849  81.9037 0004131 231.5512 300.1307  1.00276346 64440
ECHOSTAR 11             
1 33207U 08035A   26043.52333995 -.00000050  00000+0  00000+0 0  9999
2 33207   0.6814  85.8253 0002379 235.4839 259.6446  1.00272027 49967
SUPERBIRD-C2            
1 33274U 08038A   26043.60183593 -.00000300  00000+0  00000+0 0  9990
2 33274   2.0389  82.9048 0000570  71.7069 340.7151  1.00272706104489
INMARSAT 4-F3           
1 33278U 08039A   26043.52576663 -.00000133  00000+0  00000+0 0  9994
2 33278   4.1862  31.1045 0002798 296.9716 265.7582  1.00270383 45295
NIMIQ 4                 
1 33373U 08044A   26043.52888664 -.00000213  00000+0  00000+0 0  9992
2 33373   0.0180  88.0644 0002265 244.2202 278.6659  1.00271374 63738
GALAXY 19 (G-19)        
1 33376U 08045A   26043.52348479 -.00000131  00000+0  00000+0 0  9990
2 33376   0.0581 268.3860 0002494  60.3141 265.3091  1.00268238 63651
ASTRA 1M                
1 33436U 08057A   26043.33501233  .00000127  00000+0  00000+0 0  9992
2 33436   0.0445 288.2678 0000932 321.0034  32.8729  1.00265384 44482
EUTELSAT HOTBIRD 13C    
1 33459U 08065A   26043.39255928 -.00000277  00000+0  00000+0 0  9996
2 33459   2.6287  80.7133 0003651 255.9295 256.8037  1.00272083 46098
EXPRESS-AM44            
1 33595U 09007A   26043.32903229 -.00000084  00000+0  00000+0 0  9997
2 33595   3.1419  79.9661 0004208 241.7186 288.1140  1.00272282 51033
NSS-9                   
1 33749U 09008A   26043.58378334  .00000078  00000+0  00000+0 0  9992
2 33749   0.9383  83.9572 0001995 236.7842 215.1008  1.00271002 62278
TELSTAR 11N             
1 34111U 09009A   26043.39507263 -.00000243  00000+0  00000+0 0  9996
2 34111   0.0149  98.8685 0002085 216.0394 292.2013  1.00270550 44995
WGS F2 (USA 204)        
1 34713U 09017A   26043.55653346  .00000075  00000+0  00000+0 0  9997
2 34713   0.0145 100.9925 0001048 274.4398  25.0004  1.00273718 44363
SES-7 (PROTOSTAR 2)     
1 34941U 09027A   26043.56658683 -.00000337  00000+0  00000+0 0  9993
2 34941   0.0146  70.1971 0001721 223.0707 161.5377  1.00271265 61383
MEASAT-3A               
1 35362U 09032A   26043.61562847 -.00000103  00000+0  00000+0 0  9990
2 35362   0.0458 296.0649 0003075  37.0852 191.1187  1.00271880  6780
GOES 14                 
1 35491U 09033A   26043.53655762  .00000138  00000+0  00000+0 0  9991
2 35491   1.3663  84.7323 0001817 291.2856 172.4268  1.00115723  5342
FM-5                    
1 35493U 09034A   26043.52810664 -.00000192  00000+0  00000+0 0  9998
2 35493   0.0244 241.8906 0000288 294.7921  69.8403  1.00270979 45394
TERRESTAR-1             
1 35496U 09035A   26043.31534587 -.00000052  00000+0  00000+0 0  9991
2 35496   5.0780  48.8417 0003528 275.2588 180.7758  1.00287480 60884
ASIASAT 5               
1 35696U 09042A   26043.56511350 -.00000300  00000+0  00000+0 0  9997
2 35696   0.0145  97.9350 0001674 214.7698 133.8399  1.00271628 60457
JCSAT-12 (JCSAT-RA)     
1 35755U 09044A   26043.60183593 -.00000320  00000+0  00000+0 0  9996
2 35755   0.0008 237.9858 0001134 102.6974 150.6544  1.00272543 60369
